ATLAS CENTAUR 2         
1 00694U 63047A   26200.29547243  .00000449  00000+0  41214-4 0  9997
2 00694  30.3519 179.8230 0545666 160.6849 201.5315 14.12567821150244
THOR AGENA D R/B        
1 00733U 64002A   26200.04219244  .00000066  00000+0  40906-4 0  9995
2 00733  99.1155 220.4924 0031952 235.0134 124.8048 14.34077113257121
SL-3 R/B                
1 00877U 64053B   26200.56094451  .00000018  00000+0  27923-4 0  9999
2 00877  65.0780 304.5884 0080103 250.9366 108.3046 14.61440875286069
SL-8 R/B                
1 02802U 67045B   26200.19432913  .00000127  00000+0  42695-4 0  9995
2 02802  74.0110 102.4801 0063069  78.0186 282.8032 14.45696623108029
SL-8 R/B                
1 03230U 68040B   26199.98083759  .00001469  00000+0  10895-3 0  9997
2 03230  74.0291  45.2600 0024867 192.4687 167.5890 15.03950508109747
OAO 2                   
1 03597U 68110A   26200.54655908  .00000065  00000+0  22564-4 0  9995
2 03597  34.9925 248.9979 0005406 181.0301 179.0379 14.47362589 38214
ISIS 1                  
1 03669U 69009A   26200.32327086  .00000079  00000+0  47949-4 0  9991
2 03669  88.4453 140.8714 1707209 183.3215 175.5150 11.30436948363401
SERT 2                  
1 04327U 70009A   26200.60388105 -.00000014  00000+0  37717-4 0  9997
2 04327  99.2839 136.5776 0004743 177.3313 355.5958 13.58741149797800
SL-3 R/B                
1 05118U 71028B   26200.59689847  .00033285  00000+0  24463-3 0  9991
2 05118  81.2297 247.6894 0014752 166.8661 193.2986 15.72769351  9338
ASTEX 1                 
1 05560U 71089A   26200.48775500  .00000238  00000+0  60553-4 0  9992
2 05560  92.7009 194.2591 0015747   8.4851 351.6618 14.50873377881413
SL-8 R/B                
1 05730U 71119B   26200.53904382  .00004221  00000+0  21706-3 0  9995
2 05730  73.8871 288.8083 0542561 228.2579 127.0980 14.39769390674450
OAO 3 (COPERNICUS)      
1 06153U 72065A   26200.59874319  .00000103  00000+0  25423-4 0  9994
2 06153  35.0054 265.7263 0006337 164.8330 345.4383 14.60075989865489
ATLAS CENTAUR R/B       
1 06155U 72065B   26200.50129142  .00000298  00000+0  43764-4 0  9997
2 06155  35.0005 253.0945 0033174  39.1375 321.1718 14.77968560860770
SL-8 R/B                
1 08459U 75112B   26200.24560805  .00000128  00000+0  50796-4 0  9993
2 08459  74.0609 136.8974 0016039 198.8533 161.2030 14.38259327650781
SL-3 R/B                
1 10114U 77057B   26200.59840899  .00005674  00000+0  10862-3 0  9996
2 10114  97.5860  18.7265 0007654 155.1255 205.0365 15.48464818688720
SEASAT 1                
1 10967U 78064A   26200.47174053 -.00000027  00000+0  31095-4 0  9990
2 10967 108.0180  42.0629 0001052 262.2177  97.8849 14.46261208525563
SL-14 R/B               
1 11267U 79011B   26200.43356706  .00000251  00000+0  22213-4 0  9990
2 11267  82.5260 331.5510 0015379 342.7878  17.2818 14.92040100548425
SL-8 R/B                
1 11574U 79089B   26200.45570753  .00000060  00000+0  26062-4 0  9992
2 11574  74.0669 207.1216 0016180 341.0346  19.0206 14.42415445455105
SL-14 R/B               
1 11672U 80005B   26200.46641230  .00000275  00000+0  25114-4 0  9996
2 11672  82.5140 182.2199 0017346  84.5950 275.7248 14.91052054496121
SL-8 R/B                
1 12139U 81003B   26200.32479756  .00014602  00000+0  34556-3 0  9999
2 12139  82.9376 167.8938 0249766  79.3328 283.5923 15.15176898334587
SL-3 R/B                
1 12465U 81046B   26200.58183299  .00006561  00000+0  13868-3 0  9998
2 12465  81.2314 131.0268 0015649 280.3569  79.5911 15.44839374458779
SL-3 R/B                
1 12904U 81103B   26200.58831593  .00001946  00000+0  82710-4 0  9992
2 12904  81.1566  58.5580 0012328 196.4746 163.6087 15.22506145993293
SL-3 R/B                
1 13068U 82013B   26200.54972749  .00001977  00000+0  82397-4 0  9995
2 13068  81.1738   6.0618 0022914  94.4712 265.9139 15.22979161424417
SL-3 R/B                
1 13154U 82039B   26200.62374678  .00001347  00000+0  79133-4 0  9990
2 13154  81.1513  63.6159 0028777 243.3640 116.4638 15.10711181401558
SL-3 R/B                
1 13403U 82079B   26200.51022849  .00002592  00000+0  98762-4 0  9991
2 13403  81.1448  37.2430 0024901  79.6534 280.7506 15.26036562397797
SL-14 R/B               
1 13553U 82092B   26200.48580332  .00000205  00000+0  20197-4 0  9990
2 13553  82.5671  18.0746 0019256 220.5820 168.3592 14.86766440348517
SL-3 R/B                
1 13819U 83010B   26200.47419233  .00007885  00000+0  13980-3 0  9998
2 13819  81.1002 200.1744 0013011 307.2993  52.7067 15.49978429378332
SL-3 R/B                
1 14208U 83075B   26200.47631783  .00005608  00000+0  13695-3 0  9992
2 14208  97.6110 210.3133 0022376 115.4729 244.8835 15.41029890350431
COSMOS 1536             
1 14699U 84013A   26200.44069746  .00003531  00000+0  13826-3 0  9999
2 14699  82.5463 336.7117 0014351 173.4028 186.7402 15.25374682292695
SL-14 R/B               
1 14820U 84027B   26200.53485170  .00000199  00000+0  19923-4 0  9995
2 14820  82.5429 121.3847 0016344 255.7267 104.2135 14.86080623267217
