OBJECT_NAME,OBJECT_ID,EPOCH,MEAN_MOTION,ECCENTRICITY,INCLINATION,RA_OF_ASC_NODE,ARG_OF_PERICENTER,MEAN_ANOMALY,EPHEMERIS_TYPE,CLASSIFICATION_TYPE,NORAD_CAT_ID,ELEMENT_SET_NO,REV_AT_EPOCH,BSTAR,MEAN_MOTION_DOT,MEAN_MOTION_DDOT
ATLAS CENTAUR 2,1963-047A,2026-07-19T07:05:28.817952,14.12567821,.05456662,30.3519,179.8230,160.6849,201.5315,0,U,694,999,15024,.41214239E-4,.449E-5,0
THOR AGENA D R/B,1964-002A,2026-07-19T01:00:45.426816,14.34077113,.00319528,99.1155,220.4924,235.0134,124.8048,0,U,733,999,25712,.40906313E-4,.66E-6,0
SL-3 R/B,1964-053B,2026-07-19T13:27:45.605664,14.61440875,.00801039,65.0780,304.5884,250.9366,108.3046,0,U,877,999,28606,.27923417E-4,.18E-6,0
SL-8 R/B,1967-045B,2026-07-19T04:39:50.036832,14.45696623,.00630699,74.0110,102.4801,78.0186,282.8032,0,U,2802,999,10802,.42694683E-4,.127E-5,0
SL-8 R/B,1968-040B,2026-07-18T23:32:24.367776,15.03950508,.00248673,74.0291,45.2600,192.4687,167.5890,0,U,3230,999,10974,.10895462E-3,.1469E-4,0
OAO 2,1968-110A,2026-07-19T13:07:02.704512,14.47362589,.00054067,34.9925,248.9979,181.0301,179.0379,0,U,3597,999,3821,.22563669E-4,.65E-6,0
ISIS 1,1969-009A,2026-07-19T07:45:30.602304,11.30436948,.17072095,88.4453,140.8714,183.3215,175.5150,0,U,3669,999,36340,.47949228E-4,.79E-6,0
SERT 2,1970-009A,2026-07-19T14:29:35.322720,13.58741149,.00047433,99.2839,136.5776,177.3313,355.5958,0,U,4327,999,79780,.37716865E-4,-.14E-6,0
SL-3 R/B,1971-028B,2026-07-19T14:19:32.027808,15.72769351,.00147529,81.2297,247.6894,166.8661,193.2986,0,U,5118,999,933,.24462923E-3,.33285E-3,0
ASTEX 1,1971-089A,2026-07-19T11:42:22.032000,14.50873377,.00157473,92.7009,194.2591,8.4851,351.6618,0,U,5560,999,88141,.60553423E-4,.238E-5,0
SL-8 R/B,1971-119B,2026-07-19T12:56:13.386048,14.39769390,.0542561,73.8871,288.8083,228.2579,127.0980,0,U,5730,999,67445,.21705939E-3,.4221E-4,0
OAO 3 (COPERNICUS),1972-065A,2026-07-19T14:22:11.411616,14.60075989,.00063373,35.0054,265.7263,164.8330,345.4383,0,U,6153,999,86548,.2542282E-4,.103E-5,0
ATLAS CENTAUR R/B,1972-065B,2026-07-19T12:01:51.578688,14.77968560,.00331746,35.0005,253.0945,39.1375,321.1718,0,U,6155,999,86077,.43764215E-4,.298E-5,0
SL-8 R/B,1975-112B,2026-07-19T05:53:40.535520,14.38259327,.0016039,74.0609,136.8974,198.8533,161.2030,0,U,8459,999,65078,.50796242E-4,.128E-5,0
SL-3 R/B,1977-057B,2026-07-19T14:21:42.536736,15.48464818,.00076543,97.5860,18.7265,155.1255,205.0365,0,U,10114,999,68872,.10862307E-3,.5674E-4,0
SEASAT 1,1978-064A,2026-07-19T11:19:18.381792,14.46261208,.00010529,108.0180,42.0629,262.2177,97.8849,0,U,10967,999,52556,.31095467E-4,-.27E-6,0
SL-14 R/B,1979-011B,2026-07-19T10:24:20.193984,14.92040100,.00153791,82.5260,331.5510,342.7878,17.2818,0,U,11267,999,54842,.22212951E-4,.251E-5,0
SL-8 R/B,1979-089B,2026-07-19T10:56:13.130592,14.42415445,.00161803,74.0669,207.1216,341.0346,19.0206,0,U,11574,999,45510,.26062244E-4,.6E-6,0
SL-14 R/B,1980-005B,2026-07-19T11:11:38.022720,14.91052054,.00173461,82.5140,182.2199,84.5950,275.7248,0,U,11672,999,49612,.2511355E-4,.275E-5,0
SL-8 R/B,1981-003B,2026-07-19T07:47:42.509184,15.15176898,.02497668,82.9376,167.8938,79.3328,283.5923,0,U,12139,999,33458,.34556133E-3,.14602E-3,0
SL-3 R/B,1981-046B,2026-07-19T13:57:50.370336,15.44839374,.00156496,81.2314,131.0268,280.3569,79.5911,0,U,12465,999,45877,.13867975E-3,.6561E-4,0
SL-3 R/B,1981-103B,2026-07-19T14:07:10.496352,15.22506145,.00123282,81.1566,58.5580,196.4746,163.6087,0,U,12904,999,99329,.82709862E-4,.1946E-4,0
SL-3 R/B,1982-013B,2026-07-19T13:11:36.455136,15.22979161,.00229143,81.1738,6.0618,94.4712,265.9139,0,U,13068,999,42441,.82396907E-4,.1977E-4,0
SL-3 R/B,1982-039B,2026-07-19T14:58:11.721792,15.10711181,.00287771,81.1513,63.6159,243.3640,116.4638,0,U,13154,999,40155,.79132818E-4,.1347E-4,0
SL-3 R/B,1982-079B,2026-07-19T12:14:43.741536,15.26036562,.00249019,81.1448,37.2430,79.6534,280.7506,0,U,13403,999,39779,.98762403E-4,.2592E-4,0
SL-14 R/B,1982-092B,2026-07-19T11:39:33.406848,14.86766440,.00192565,82.5671,18.0746,220.5820,168.3592,0,U,13553,999,34851,.20197483E-4,.205E-5,0
SL-3 R/B,1983-010B,2026-07-19T11:22:50.217312,15.49978429,.00130111,81.1002,200.1744,307.2993,52.7067,0,U,13819,999,37833,.13979793E-3,.7885E-4,0
SL-3 R/B,1983-075B,2026-07-19T11:25:53.860512,15.41029890,.0022376,97.6110,210.3133,115.4729,244.8835,0,U,14208,999,35043,.13694547E-3,.5608E-4,0
COSMOS 1536,1984-013A,2026-07-19T10:34:36.260544,15.25374682,.00143513,82.5463,336.7117,173.4028,186.7402,0,U,14699,999,29269,.13826136E-3,.3531E-4,0
SL-14 R/B,1984-027B,2026-07-19T12:50:11.186880,14.86080623,.00163446,82.5429,121.3847,255.7267,104.2135,0,U,14820,999,26721,.19922776E-4,.199E-5,0
